{
  "type": "FeatureCollection",
  "features": [
    {
      "type": "Feature",
      "properties": {
        "norad_id": 66885,
        "name": "STARLINK-35954",
        "group": "last-30-days",
        "lat": -37.9701175901714,
        "lon": 1.8144639512270886,
        "alt_km": 349.4942459784397,
        "timestamp": "2025-12-19T22:41:51.097964+00:00",
        "meta_object_name": "STARLINK-35954",
        "meta_object_id": "2025-283H",
        "meta_epoch": "2025-12-19T18:00:00.998784",
        "meta_mean_motion": 15.75534081,
        "meta_eccentricity": 7.05e-05,
        "meta_inclination": 53.1561,
        "meta_ra_of_asc_node": 38.6053,
        "meta_arg_of_pericenter": 74.2639,
        "meta_mean_anomaly": 205.029,
        "meta_ephemeris_type": 0,
        "meta_classification_type": "U",
        "meta_norad_cat_id": 66885,
        "meta_element_set_no": 999,
        "meta_rev_at_epoch": 355,
        "meta_bstar": -0.010772,
        "meta_mean_motion_dot": -0.01474875,
        "meta_mean_motion_ddot": 0,
        "tle_line1": "1 66885U 25283H   25353.75001156 -.01474875  00000+0 -10772-1 0  9991",
        "tle_line2": "2 66885  53.1561  38.6053 0000705  74.2639 205.0290 15.75534081  3554"
      },
      "geometry": {
        "type": "Point",
        "coordinates": [
          1.8144639512270886,
          -37.9701175901714
        ]
      }
    },
    {
      "type": "Feature",
      "properties": {
        "norad_id": 66886,
        "name": "STARLINK-35900",
        "group": "last-30-days",
        "lat": -35.330717213118255,
        "lon": 5.516019933668715,
        "alt_km": 350.165123131982,
        "timestamp": "2025-12-19T22:41:51.097973+00:00",
        "meta_object_name": "STARLINK-35900",
        "meta_object_id": "2025-283J",
        "meta_epoch": "2025-12-19T18:00:00.998784",
        "meta_mean_motion": 15.75172271,
        "meta_eccentricity": 9.34e-05,
        "meta_inclination": 53.1565,
        "meta_ra_of_asc_node": 38.5963,
        "meta_arg_of_pericenter": 77.6577,
        "meta_mean_anomaly": 205.8366,
        "meta_ephemeris_type": 0,
        "meta_classification_type": "U",
        "meta_norad_cat_id": 66886,
        "meta_element_set_no": 999,
        "meta_rev_at_epoch": 355,
        "meta_bstar": -0.0090582,
        "meta_mean_motion_dot": -0.01224488,
        "meta_mean_motion_ddot": 0,
        "tle_line1": "1 66886U 25283J   25353.75001156 -.01224488  00000+0 -90582-2 0  9993",
        "tle_line2": "2 66886  53.1565  38.5963 0000934  77.6577 205.8366 15.75172271  3551"
      },
      "geometry": {
        "type": "Point",
        "coordinates": [
          5.516019933668715,
          -35.330717213118255
        ]
      }
    },
    {
      "type": "Feature",
      "properties": {
        "norad_id": 66887,
        "name": "STARLINK-35925",
        "group": "last-30-days",
        "lat": -33.98331712148992,
        "lon": 7.257925163699315,
        "alt_km": 350.1300155134177,
        "timestamp": "2025-12-19T22:41:51.097983+00:00",
        "meta_object_name": "STARLINK-35925",
        "meta_object_id": "2025-283K",
        "meta_epoch": "2025-12-19T18:00:00.998784",
        "meta_mean_motion": 15.75120297,
        "meta_eccentricity": 7.45e-05,
        "meta_inclination": 53.1559,
        "meta_ra_of_asc_node": 38.5923,
        "meta_arg_of_pericenter": 66.9766,
        "meta_mean_anomaly": 218.5319,
        "meta_ephemeris_type": 0,
        "meta_classification_type": "U",
        "meta_norad_cat_id": 66887,
        "meta_element_set_no": 999,
        "meta_rev_at_epoch": 355,
        "meta_bstar": -0.0094062,
        "meta_mean_motion_dot": -0.01286327,
        "meta_mean_motion_ddot": 0,
        "tle_line1": "1 66887U 25283K   25353.75001156 -.01286327  00000+0 -94062-2 0  9991",
        "tle_line2": "2 66887  53.1559  38.5923 0000745  66.9766 218.5319 15.75120297  3552"
      },
      "geometry": {
        "type": "Point",
        "coordinates": [
          7.257925163699315,
          -33.98331712148992
        ]
      }
    },
    {
      "type": "Feature",
      "properties": {
        "norad_id": 66888,
        "name": "STARLINK-35919",
        "group": "last-30-days",
        "lat": -32.64592012670659,
        "lon": 8.905082263448326,
        "alt_km": 350.43970355713736,
        "timestamp": "2025-12-19T22:41:51.097996+00:00",
        "meta_object_name": "STARLINK-35919",
        "meta_object_id": "2025-283L",
        "meta_epoch": "2025-12-19T18:00:00.998784",
        "meta_mean_motion": 15.74916398,
        "meta_eccentricity": 0.0001132,
        "meta_inclination": 53.1565,
        "meta_ra_of_asc_node": 38.5878,
        "meta_arg_of_pericenter": 77.1344,
        "meta_mean_anomaly": 210.398,
        "meta_ephemeris_type": 0,
        "meta_classification_type": "U",
        "meta_norad_cat_id": 66888,
        "meta_element_set_no": 999,
        "meta_rev_at_epoch": 355,
        "meta_bstar": -0.0071856,
        "meta_mean_motion_dot": -0.0098505,
        "meta_mean_motion_ddot": 0,
        "tle_line1": "1 66888U 25283L   25353.75001156 -.00985050  00000+0 -71856-2 0  9996",
        "tle_line2": "2 66888  53.1565  38.5878 0001132  77.1344 210.3980 15.74916398  3554"
      },
      "geometry": {
        "type": "Point",
        "coordinates": [
          8.905082263448326,
          -32.64592012670659
        ]
      }
    },
    {
      "type": "Feature",
      "properties": {
        "norad_id": 66889,
        "name": "STARLINK-35852",
        "group": "last-30-days",
        "lat": -31.26996203388981,
        "lon": 10.522451809446919,
        "alt_km": 350.521994624115,
        "timestamp": "2025-12-19T22:41:51.098008+00:00",
        "meta_object_name": "STARLINK-35852",
        "meta_object_id": "2025-283M",
        "meta_epoch": "2025-12-19T18:00:00.998784",
        "meta_mean_motion": 15.74735117,
        "meta_eccentricity": 8.34e-05,
        "meta_inclination": 53.1563,
        "meta_ra_of_asc_node": 38.5832,
        "meta_arg_of_pericenter": 77.7031,
        "meta_mean_anomaly": 211.8714,
        "meta_ephemeris_type": 0,
        "meta_classification_type": "U",
        "meta_norad_cat_id": 66889,
        "meta_element_set_no": 999,
        "meta_rev_at_epoch": 355,
        "meta_bstar": -0.0057309,
        "meta_mean_motion_dot": -0.00784324,
        "meta_mean_motion_ddot": 0,
        "tle_line1": "1 66889U 25283M   25353.75001156 -.00784324  00000+0 -57309-2 0  9995",
        "tle_line2": "2 66889  53.1563  38.5832 0000834  77.7031 211.8714 15.74735117  3559"
      },
      "geometry": {
        "type": "Point",
        "coordinates": [
          10.522451809446919,
          -31.26996203388981
        ]
      }
    },
    {
      "type": "Feature",
      "properties": {
        "norad_id": 66890,
        "name": "STARLINK-35885",
        "group": "last-30-days",
        "lat": -29.89236398051044,
        "lon": 12.073908610894302,
        "alt_km": 350.55611753552057,
        "timestamp": "2025-12-19T22:41:51.098020+00:00",
        "meta_object_name": "STARLINK-35885",
        "meta_object_id": "2025-283N",
        "meta_epoch": "2025-12-19T18:00:00.998784",
        "meta_mean_motion": 15.74579128,
        "meta_eccentricity": 0.0001209,
        "meta_inclination": 53.1564,
        "meta_ra_of_asc_node": 38.5794,
        "meta_arg_of_pericenter": 62.5689,
        "meta_mean_anomaly": 229.0166,
        "meta_ephemeris_type": 0,
        "meta_classification_type": "U",
        "meta_norad_cat_id": 66890,
        "meta_element_set_no": 999,
        "meta_rev_at_epoch": 355,
        "meta_bstar": -0.0044266,
        "meta_mean_motion_dot": -0.00614148,
        "meta_mean_motion_ddot": 0,
        "tle_line1": "1 66890U 25283N   25353.75001156 -.00614148  00000+0 -44266-2 0  9991",
        "tle_line2": "2 66890  53.1564  38.5794 0001209  62.5689 229.0166 15.74579128  3557"
      },
      "geometry": {
        "type": "Point",
        "coordinates": [
          12.073908610894302,
          -29.89236398051044
        ]
      }
    },
    {
      "type": "Feature",
      "properties": {
        "norad_id": 66891,
        "name": "STARLINK-35855",
        "group": "last-30-days",
        "lat": -28.498092013349275,
        "lon": 13.580685073736328,
        "alt_km": 351.1240368288027,
        "timestamp": "2025-12-19T22:41:51.098030+00:00",
        "meta_object_name": "STARLINK-35855",
        "meta_object_id": "2025-283P",
        "meta_epoch": "2025-12-19T18:00:00.998784",
        "meta_mean_motion": 15.74425894,
        "meta_eccentricity": 0.0001375,
        "meta_inclination": 53.1559,
        "meta_ra_of_asc_node": 38.5753,
        "meta_arg_of_pericenter": 92.8134,
        "meta_mean_anomaly": 200.7751,
        "meta_ephemeris_type": 0,
        "meta_classification_type": "U",
        "meta_norad_cat_id": 66891,
        "meta_element_set_no": 999,
        "meta_rev_at_epoch": 355,
        "meta_bstar": -0.0032386,
        "meta_mean_motion_dot": -0.00454908,
        "meta_mean_motion_ddot": 0,
        "tle_line1": "1 66891U 25283P   25353.75001156 -.00454908  00000+0 -32386-2 0  9998",
        "tle_line2": "2 66891  53.1559  38.5753 0001375  92.8134 200.7751 15.74425894  3558"
      },
      "geometry": {
        "type": "Point",
        "coordinates": [
          13.580685073736328,
          -28.498092013349275
        ]
      }
    }
  ]
}